CCSDS_OMM_VERS = 2.0
CREATION_DATE  = 
ORIGINATOR     = 

OBJECT_NAME    = SL-14 R/B
OBJECT_ID      = 1986-046B
CENTER_NAME    = EARTH
REF_FRAME      = TEME
TIME_SYSTEM    = UTC
MEAN_ELEMENT_THEORY = SGP/SGP4

EPOCH          = 2026-03-01T15:46:34.564800
MEAN_MOTION    = 14.85581121
ECCENTRICITY   = .0021594
INCLINATION    = 82.4783
RA_OF_ASC_NODE = 87.7737
ARG_OF_PERICENTER = 253.4957
MEAN_ANOMALY   = 106.3886

EPHEMERIS_TYPE = 0
CLASSIFICATION_TYPE = U
NORAD_CAT_ID   = 16792
ELEMENT_SET_NO = 999
REV_AT_EPOCH   = 12521
BSTAR          = .58724E-4
MEAN_MOTION_DOT = .534E-5
MEAN_MOTION_DDOT = 0

CCSDS_OMM_VERS = 2.0
CREATION_DATE  = 
ORIGINATOR     = 

OBJECT_NAME    = SL-14 R/B
OBJECT_ID      = 1986-055B
CENTER_NAME    = EARTH
REF_FRAME      = TEME
TIME_SYSTEM    = UTC
MEAN_ELEMENT_THEORY = SGP/SGP4

EPOCH          = 2026-03-01T17:33:42.520032
MEAN_MOTION    = 14.85633958
ECCENTRICITY   = .0018884
INCLINATION    = 82.5216
RA_OF_ASC_NODE = 134.1533
ARG_OF_PERICENTER = 3.3156
MEAN_ANOMALY   = 117.7522

EPHEMERIS_TYPE = 0
CLASSIFICATION_TYPE = U
NORAD_CAT_ID   = 16882
ELEMENT_SET_NO = 999
REV_AT_EPOCH   = 11818
BSTAR          = .57025E-4
MEAN_MOTION_DOT = .519E-5
MEAN_MOTION_DDOT = 0

CCSDS_OMM_VERS = 2.0
CREATION_DATE  = 
ORIGINATOR     = 

OBJECT_NAME    = AJISAI (EGS)
OBJECT_ID      = 1986-061A
CENTER_NAME    = EARTH
REF_FRAME      = TEME
TIME_SYSTEM    = UTC
MEAN_ELEMENT_THEORY = SGP/SGP4

EPOCH          = 2026-03-01T20:49:35.465376
MEAN_MOTION    = 12.44515484
ECCENTRICITY   = .0011243
INCLINATION    = 50.0081
RA_OF_ASC_NODE = 117.4009
ARG_OF_PERICENTER = 266.8711
MEAN_ANOMALY   = 262.6883

EPHEMERIS_TYPE = 0
CLASSIFICATION_TYPE = U
NORAD_CAT_ID   = 16908
ELEMENT_SET_NO = 999
REV_AT_EPOCH   = 46702
BSTAR          = .66599E-4
MEAN_MOTION_DOT = -.88E-6
MEAN_MOTION_DDOT = 0

CCSDS_OMM_VERS = 2.0
CREATION_DATE  = 
ORIGINATOR     = 

OBJECT_NAME    = COSMOS 1812
OBJECT_ID      = 1987-003A
CENTER_NAME    = EARTH
REF_FRAME      = TEME
TIME_SYSTEM    = UTC
MEAN_ELEMENT_THEORY = SGP/SGP4

EPOCH          = 2026-03-01T16:54:10.935072
MEAN_MOTION    = 16.18044831
ECCENTRICITY   = .0006534
INCLINATION    = 82.4733
RA_OF_ASC_NODE = 204.7715
ARG_OF_PERICENTER = 287.6253
MEAN_ANOMALY   = 72.4320

EPHEMERIS_TYPE = 0
CLASSIFICATION_TYPE = U
NORAD_CAT_ID   = 17295
ELEMENT_SET_NO = 999
REV_AT_EPOCH   = 14319
BSTAR          = .80777E-3
MEAN_MOTION_DOT = .1313129E-1
MEAN_MOTION_DDOT = -.1201E-5

CCSDS_OMM_VERS = 2.0
CREATION_DATE  = 
ORIGINATOR     = 

OBJECT_NAME    = SL-14 R/B
OBJECT_ID      = 1987-024B
CENTER_NAME    = EARTH
REF_FRAME      = TEME
TIME_SYSTEM    = UTC
MEAN_ELEMENT_THEORY = SGP/SGP4

EPOCH          = 2026-03-01T19:52:48.592416
MEAN_MOTION    = 14.86123236
ECCENTRICITY   = .0016707
INCLINATION    = 82.5254
RA_OF_ASC_NODE = 100.1544
ARG_OF_PERICENTER = 288.3695
MEAN_ANOMALY   = 71.5705

EPHEMERIS_TYPE = 0
CLASSIFICATION_TYPE = U
NORAD_CAT_ID   = 17567
ELEMENT_SET_NO = 999
REV_AT_EPOCH   = 8696
BSTAR          = .54886E-4
MEAN_MOTION_DOT = .506E-5
MEAN_MOTION_DDOT = 0

CCSDS_OMM_VERS = 2.0
CREATION_DATE  = 
ORIGINATOR     = 

OBJECT_NAME    = COSMOS 1833
OBJECT_ID      = 1987-027A
CENTER_NAME    = EARTH
REF_FRAME      = TEME
TIME_SYSTEM    = UTC
MEAN_ELEMENT_THEORY = SGP/SGP4

EPOCH          = 2026-03-01T18:57:58.743936
MEAN_MOTION    = 14.13056384
ECCENTRICITY   = .0024604
INCLINATION    = 70.9232
RA_OF_ASC_NODE = 342.6198
ARG_OF_PERICENTER = 225.4198
MEAN_ANOMALY   = 134.4915

EPHEMERIS_TYPE = 0
CLASSIFICATION_TYPE = U
NORAD_CAT_ID   = 17589
ELEMENT_SET_NO = 999
REV_AT_EPOCH   = 920
BSTAR          = -.44337E-4
MEAN_MOTION_DOT = -.131E-5
MEAN_MOTION_DDOT = 0

CCSDS_OMM_VERS = 2.0
CREATION_DATE  = 
ORIGINATOR     = 

OBJECT_NAME    = SL-16 R/B
OBJECT_ID      = 1987-027B
CENTER_NAME    = EARTH
REF_FRAME      = TEME
TIME_SYSTEM    = UTC
MEAN_ELEMENT_THEORY = SGP/SGP4

EPOCH          = 2026-03-01T18:53:01.476960
MEAN_MOTION    = 14.17166831
ECCENTRICITY   = .0003806
INCLINATION    = 71.0021
RA_OF_ASC_NODE = 293.1494
ARG_OF_PERICENTER = 159.1916
MEAN_ANOMALY   = 200.9364

EPHEMERIS_TYPE = 0
CLASSIFICATION_TYPE = U
NORAD_CAT_ID   = 17590
ELEMENT_SET_NO = 999
REV_AT_EPOCH   = 1422
BSTAR          = -.62536E-4
MEAN_MOTION_DOT = -.174E-5
MEAN_MOTION_DDOT = 0

CCSDS_OMM_VERS = 2.0
CREATION_DATE  = 
ORIGINATOR     = 

OBJECT_NAME    = SL-14 R/B
OBJECT_ID      = 1987-038B
CENTER_NAME    = EARTH
REF_FRAME      = TEME
TIME_SYSTEM    = UTC
MEAN_ELEMENT_THEORY = SGP/SGP4

EPOCH          = 2026-03-01T18:02:44.205792
MEAN_MOTION    = 14.85360975
ECCENTRICITY   = .0018989
INCLINATION    = 82.5017
RA_OF_ASC_NODE = 304.2855
ARG_OF_PERICENTER = 186.3968
MEAN_ANOMALY   = 173.7009

EPHEMERIS_TYPE = 0
CLASSIFICATION_TYPE = U
NORAD_CAT_ID   = 17912
ELEMENT_SET_NO = 999
REV_AT_EPOCH   = 7805
BSTAR          = .56999E-4
MEAN_MOTION_DOT = .516E-5
MEAN_MOTION_DDOT = 0

CCSDS_OMM_VERS = 2.0
CREATION_DATE  = 
ORIGINATOR     = 

OBJECT_NAME    = COSMOS 1844
OBJECT_ID      = 1987-041A
CENTER_NAME    = EARTH
REF_FRAME      = TEME
TIME_SYSTEM    = UTC
MEAN_ELEMENT_THEORY = SGP/SGP4

EPOCH          = 2026-03-01T09:49:43.751424
MEAN_MOTION    = 14.14553227
ECCENTRICITY   = .0029571
INCLINATION    = 70.8991
RA_OF_ASC_NODE = 51.6401
ARG_OF_PERICENTER = 30.4858
MEAN_ANOMALY   = 329.7975

EPHEMERIS_TYPE = 0
CLASSIFICATION_TYPE = U
NORAD_CAT_ID   = 17973
ELEMENT_SET_NO = 999
REV_AT_EPOCH   = 241
BSTAR          = .10941E-4
MEAN_MOTION_DOT = -.27E-6
MEAN_MOTION_DDOT = 0

CCSDS_OMM_VERS = 2.0
CREATION_DATE  = 
ORIGINATOR     = 

OBJECT_NAME    = SL-14 R/B
OBJECT_ID      = 1987-055B
CENTER_NAME    = EARTH
REF_FRAME      = TEME
TIME_SYSTEM    = UTC
MEAN_ELEMENT_THEORY = SGP/SGP4

EPOCH          = 2026-03-01T19:08:32.383392
MEAN_MOTION    = 14.85617962
ECCENTRICITY   = .0021773
INCLINATION    = 82.5026
RA_OF_ASC_NODE = 356.4671
ARG_OF_PERICENTER = 42.9294
MEAN_ANOMALY   = 317.3616

EPHEMERIS_TYPE = 0
CLASSIFICATION_TYPE = U
NORAD_CAT_ID   = 18153
ELEMENT_SET_NO = 999
REV_AT_EPOCH   = 6876
BSTAR          = .75726E-4
MEAN_MOTION_DOT = .682E-5
MEAN_MOTION_DDOT = 0

CCSDS_OMM_VERS = 2.0
CREATION_DATE  = 
ORIGINATOR     = 

OBJECT_NAME    = COSMOS 1867
OBJECT_ID      = 1987-060A
CENTER_NAME    = EARTH
REF_FRAME      = TEME
TIME_SYSTEM    = UTC
MEAN_ELEMENT_THEORY = SGP/SGP4

EPOCH          = 2026-03-01T19:49:57.331200
MEAN_MOTION    = 14.31501523
ECCENTRICITY   = .001438
INCLINATION    = 65.0120
RA_OF_ASC_NODE = 328.7259
ARG_OF_PERICENTER = 278.1644
MEAN_ANOMALY   = 81.7810

EPHEMERIS_TYPE = 0
CLASSIFICATION_TYPE = U
NORAD_CAT_ID   = 18187
ELEMENT_SET_NO = 999
REV_AT_EPOCH   = 1881
BSTAR          = .27705E-4
MEAN_MOTION_DOT = -.26E-6
MEAN_MOTION_DDOT = 0

CCSDS_OMM_VERS = 2.0
CREATION_DATE  = 
ORIGINATOR     = 

OBJECT_NAME    = SL-14 R/B
OBJECT_ID      = 1988-001B
CENTER_NAME    = EARTH
REF_FRAME      = TEME
TIME_SYSTEM    = UTC
MEAN_ELEMENT_THEORY = SGP/SGP4

EPOCH          = 2026-03-01T19:00:57.953952
MEAN_MOTION    = 14.85516065
ECCENTRICITY   = .001659
INCLINATION    = 82.5139
RA_OF_ASC_NODE = 202.7864
ARG_OF_PERICENTER = 264.0266
MEAN_ANOMALY   = 95.9059

EPHEMERIS_TYPE = 0
CLASSIFICATION_TYPE = U
NORAD_CAT_ID   = 18749
ELEMENT_SET_NO = 999
REV_AT_EPOCH   = 4085
BSTAR          = .77139E-4
MEAN_MOTION_DOT = .691E-5
MEAN_MOTION_DDOT = 0

