SL-14 R/B               
1 16792U 86046B   26060.65734450  .00000534  00000+0  58724-4 0  9998
2 16792  82.4783  87.7737 0021594 253.4957 106.3886 14.85581121125213
SL-14 R/B               
1 16882U 86055B   26060.73174213  .00000519  00000+0  57025-4 0  9998
2 16882  82.5216 134.1533 0018884   3.3156 117.7522 14.85633958118184
AJISAI (EGS)            
1 16908U 86061A   26060.86777159 -.00000088  00000+0  66599-4 0  9994
2 16908  50.0081 117.4009 0011243 266.8711 262.6883 12.44515484467026
COSMOS 1812             
1 17295U 87003A   26060.70429323  .01313129 -12010-5  80777-3 0  9998
2 17295  82.4733 204.7715 0006534 287.6253  72.4320 16.18044831143192
SL-14 R/B               
1 17567U 87024B   26060.82834019  .00000506  00000+0  54886-4 0  9991
2 17567  82.5254 100.1544 0016707 288.3695  71.5705 14.86123236 86961
COSMOS 1833             
1 17589U 87027A   26060.79026324 -.00000131  00000+0 -44337-4 0  9992
2 17589  70.9232 342.6198 0024604 225.4198 134.4915 14.13056384  9208
SL-16 R/B               
1 17590U 87027B   26060.78682265 -.00000174  00000+0 -62536-4 0  9993
2 17590  71.0021 293.1494 0003806 159.1916 200.9364 14.17166831 14227
SL-14 R/B               
1 17912U 87038B   26060.75190053  .00000516  00000+0  56999-4 0  9993
2 17912  82.5017 304.2855 0018989 186.3968 173.7009 14.85360975 78053
COSMOS 1844             
1 17973U 87041A   26060.40953416 -.00000027  00000+0  10941-4 0  9991
2 17973  70.8991  51.6401 0029571  30.4858 329.7975 14.14553227  2415
SL-14 R/B               
1 18153U 87055B   26060.79759703  .00000682  00000+0  75726-4 0  9990
2 18153  82.5026 356.4671 0021773  42.9294 317.3616 14.85617962 68768
COSMOS 1867             
1 18187U 87060A   26060.82635800 -.00000026  00000+0  27705-4 0  9995
2 18187  65.0120 328.7259 0014380 278.1644  81.7810 14.31501523 18813
SL-14 R/B               
1 18749U 88001B   26060.79233743  .00000691  00000+0  77139-4 0  9994
2 18749  82.5139 202.7864 0016590 264.0266  95.9059 14.85516065 40850
